<!DOCTYPE html>
<html lang="en"><head><meta charset="UTF-8"/><meta name="viewport" content="width=device-width, initial-scale=1.0"/><title>TLE · Satellite Toolbox</title><link rel="canonical" href="https://juliaspace.github.io/SatelliteToolbox.jl/stable/man/orbit/tle/index.html"/><link href="https://fonts.googleapis.com/css?family=Lato|Roboto+Mono" rel="stylesheet" type="text/css"/><link href="https://cdnjs.cloudflare.com/ajax/libs/font-awesome/5.11.2/css/fontawesome.min.css" rel="stylesheet" type="text/css"/><link href="https://cdnjs.cloudflare.com/ajax/libs/font-awesome/5.11.2/css/solid.min.css" rel="stylesheet" type="text/css"/><link href="https://cdnjs.cloudflare.com/ajax/libs/font-awesome/5.11.2/css/brands.min.css" rel="stylesheet" type="text/css"/><link href="https://cdnjs.cloudflare.com/ajax/libs/KaTeX/0.11.1/katex.min.css" rel="stylesheet" type="text/css"/><script>documenterBaseURL="../../.."</script><script src="https://cdnjs.cloudflare.com/ajax/libs/require.js/2.3.6/require.min.js" data-main="../../../assets/documenter.js"></script><script src="../../../siteinfo.js"></script><script src="../../../../versions.js"></script><link class="docs-theme-link" rel="stylesheet" type="text/css" href="../../../assets/themes/documenter-dark.css" data-theme-name="documenter-dark"/><link class="docs-theme-link" rel="stylesheet" type="text/css" href="../../../assets/themes/documenter-light.css" data-theme-name="documenter-light" data-theme-primary/><script src="../../../assets/themeswap.js"></script></head><body><div id="documenter"><nav class="docs-sidebar"><a class="docs-logo" href="../../../"><img src="../../../assets/logo.png" alt="Satellite Toolbox logo"/></a><div class="docs-package-name"><span class="docs-autofit">Satellite Toolbox</span></div><form class="docs-search" action="../../../search/"><input class="docs-search-query" id="documenter-search-query" name="q" type="text" placeholder="Search docs"/></form><ul class="docs-menu"><li><a class="tocitem" href="../../../">Home</a></li><li><span class="tocitem">Earth</span><ul><li><a class="tocitem" href="../../earth/atmospheric_models/">Earth atmospheric models</a></li><li><a class="tocitem" href="../../earth/geomagnetic_field_models/">Earth geomagnetic field models</a></li><li><a class="tocitem" href="../../earth/space_indices/">Space indices</a></li></ul></li><li><span class="tocitem">Orbit</span><ul><li><a class="tocitem" href="../anomalies/">Anomalies</a></li><li><a class="tocitem" href="../general/">General analysis</a></li><li><a class="tocitem" href="../propagators/">Orbit propagators</a></li><li class="is-active"><a class="tocitem" href>TLE</a></li></ul></li><li><span class="tocitem">Transformations</span><ul><li><a class="tocitem" href="../../transformations/ecef_eci/">ECEF and ECI</a></li><li><a class="tocitem" href="../../transformations/geodetic_geocentric/">Geodetic and Geocentric</a></li></ul></li><li><a class="tocitem" href="../../../lib/library/">Library</a></li></ul><div class="docs-version-selector field has-addons"><div class="control"><span class="docs-label button is-static is-size-7">Version</span></div><div class="docs-selector control is-expanded"><div class="select is-fullwidth is-size-7"><select id="documenter-version-selector"></select></div></div></div></nav><div class="docs-main"><header class="docs-navbar"><nav class="breadcrumb"><ul class="is-hidden-mobile"><li><a class="is-disabled">Orbit</a></li><li class="is-active"><a href>TLE</a></li></ul><ul class="is-hidden-tablet"><li class="is-active"><a href>TLE</a></li></ul></nav><div class="docs-right"><a class="docs-edit-link" href="https://github.com/JuliaSpace/SatelliteToolbox.jl/blob/master/docs/src/man/orbit/tle.md" title="Edit on GitHub"><span class="docs-icon fab"></span><span class="docs-label is-hidden-touch">Edit on GitHub</span></a><a class="docs-settings-button fas fa-cog" id="documenter-settings-button" href="#" title="Settings"></a><a class="docs-sidebar-button fa fa-bars is-hidden-desktop" id="documenter-sidebar-button" href="#"></a></div></header><article class="content" id="documenter-page"><h1 id="TLE-1"><a class="docs-heading-anchor" href="#TLE-1">TLE</a><a class="docs-heading-anchor-permalink" href="#TLE-1" title="Permalink"></a></h1><p>The TLE, or Two Line Elements set, is a data format that contains information about the orbit at a specific epoch of an Earth-orbiting object. The information is split into two lines with 70 characters each. In the following, it is presented an example of a TLE describing the orbit of the Brazilian satellite SCD-1 at 25 December 2018:</p><pre><code class="language-none">SCD 1                   
1 22490U 93009B   18359.76217587  .00000186  00000-0  84512-6 0  9998
2 22490  24.9694 116.1709 0043211  90.3968  62.0083 14.44539396366163</code></pre><p>For more information, see <a href="https://en.wikipedia.org/wiki/Two-line_element_set">https://en.wikipedia.org/wiki/Two-line_element_set</a>.</p><p>The TLE contains all the necessary information to propagate the orbit using, for example, the <a href="../propagators/#SGP4-1">SGP4</a> orbit propagator. Hence, this package contains a set of functions that helps to load the TLE information to be used in the <a href="../propagators/#Orbit-propagators-1">Orbit propagators</a>.</p><p>If the TLEs are stored in one file, then they can be loaded using the function:</p><pre><code class="language-julia">function read_tle(tle_filename::String, verify_checksum::Bool = true)</code></pre><p>where the <code>tle_filename</code> is the file path. Each TLE line has a checksum to verify the correctness of the data. By default, if the checksum is wrong, then this function will throw an error. The checksum verification can be avoided by setting <code>verify_checksum</code> to <code>false</code>.</p><p>This function returns an array of TLEs. Each TLE is an instance of the structure <a href="../../../lib/library/#SatelliteToolbox.SatelliteToolboxTLE.TLE"><code>TLE</code></a>.</p><pre><code class="language-julia-repl">julia&gt; tles = read_tle(&quot;tles&quot;)
2-element Array{TLE,1}:
 TLE: SCD 1 (Epoch = 2018-12-25T18:17:31.995)
 TLE: SCD 2 (Epoch = 2018-12-26T05:50:03.289)

julia&gt; tles[1]
                             TLE
    ==========================================================
                            Name: SCD 1
                Satellite number: 22490
        International designator: 93009B
                    Epoch (Year): 18
                     Epoch (Day): 359.76217587
              Epoch (Julian Day): 2458478.26218
              Element set number: 999
                    Eccentricity:   0.00432110 deg
                     Inclination:  24.96940000 deg
                            RAAN: 116.17090000 deg
             Argument of perigee:  90.39680000 deg
                    Mean anomaly:  62.00830000 deg
                 Mean motion (n):  14.44539396 revs/day
               Revolution number: 36616

                              B*: 0.000001 1/[er]

                        1   d
                       ---.--- n: 0.000002 rev/day²
                        2  dt

                        1   d²
                       ---.--- n: 0.000000 rev/day³
                        6  dt²
    ==========================================================

julia&gt; tles[2]
                             TLE
    ==========================================================
                            Name: SCD 2
                Satellite number: 25504
        International designator: 98060A
                    Epoch (Year): 18
                     Epoch (Day): 360.24309362
              Epoch (Julian Day): 2458478.74309
              Element set number: 999
                    Eccentricity:   0.00174310 deg
                     Inclination:  24.99670000 deg
                            RAAN: 319.86640000 deg
             Argument of perigee: 121.38100000 deg
                    Mean anomaly:   9.79390000 deg
                 Mean motion (n):  14.44057429 revs/day
               Revolution number: 6554

                              B*: 0.000011 1/[er]

                        1   d
                       ---.--- n: 0.000002 rev/day²
                        2  dt

                        1   d²
                       ---.--- n: 0.000000 rev/day³
                        6  dt²
    ==========================================================</code></pre><p>If the TLE is stored in a string, then it can be read using the following functions:</p><pre><code class="language-julia">function read_tle_from_string(tles::String, verify_checksum::Bool = true)
function read_tle_from_string(tle_l1::String, tle_l2::String, verify_checksum::Bool = false)</code></pre><p>In the first case, a list of TLEs can be passed in <code>tles</code>. In the second case, the first line and second line of a TLE can be passed in <code>tle_l1</code> and <code>tle_l2</code>, respectively. In both cases an array of TLEs is returned.  The argument <code>verify_checksum</code> has the same function as described previously.</p><pre><code class="language-julia-repl">julia&gt; tles = &quot;&quot;&quot;
       SCD 1
       1 22490U 93009B   18359.76217587  .00000186  00000-0  84512-6 0  9998
       2 22490  24.9694 116.1709 0043211  90.3968  62.0083 14.44539396366163
       SCD 2
       1 25504U 98060A   18360.24309362  .00000218  00000-0  10518-4 0  9996
       2 25504  24.9967 319.8664 0017431 121.3810   9.7939 14.44057429 65541
       &quot;&quot;&quot;;

julia&gt; read_tle_from_string(tles)
2-element Array{TLE,1}:
 TLE: SCD 1 (Epoch = 2018-12-25T18:17:31.995)
 TLE: SCD 2 (Epoch = 2018-12-26T05:50:03.289)

julia&gt; tle_l1 = &quot;1 22490U 93009B   18359.76217587  .00000186  00000-0  84512-6 0  9998&quot;
&quot;1 22490U 93009B   18359.76217587  .00000186  00000-0  84512-6 0  9998&quot;

